ONEWEB-0220             
1 48232U 21031Y   24023.28529842  .00000348  00000+0  90418-3 0  9996
2 48232  87.8963 104.0668 0001502  93.9215 266.2087 13.14503772133331
ONEWEB-0165             
1 48233U 21031Z   24023.23771480 -.00000116  00000+0 -34676-3 0  9998
2 48233  87.8965 104.0829 0001727  98.4048 261.7277 13.14504030133289
ONEWEB-0199             
1 48234U 21031AA  24023.29797630  .00000162  00000+0  40215-3 0  9995
2 48234  87.8970 104.0428 0001716 100.4085 259.7238 13.14501867133193
ONEWEB-0203             
1 48235U 21031AB  24023.28846562  .00000271  00000+0  69661-3 0  9991
2 48235  87.8971 104.0459 0002113 107.6563 252.4797 13.14502395133200
ONEWEB-0197             
1 48236U 21031AC  24023.18776358  .00000044  00000+0  85201-4 0  9993
2 48236  87.8970 104.0729 0001488 114.9102 245.2183 13.14504836133104
ONEWEB-0194             
1 48237U 21031AD  24023.24247598 -.00000135  00000+0 -39912-3 0  9990
2 48237  87.8972 104.0535 0002055 106.2428 253.8928 13.14503017133289
ONEWEB-0193             
1 48238U 21031AE  24023.63891716  .00001417  00000+0  37863-2 0  9995
2 48238  87.8968 103.9836 0002060  99.2652 260.8711 13.14508497133288
ONEWEB-0191             
1 48239U 21031AF  24023.26943447  .00000096  00000+0  22403-3 0  9991
2 48239  87.8968 104.0449 0001861 102.0880 258.0459 13.14502450133095
